{"fetched_at":"2026-03-29T16:36:15Z","count":15609,"tles":[{"name":"STARLINK-31452","line1":"1 59527U 24073S   26087.79103776  .00003786  00000+0  14698-3 0  9991","line2":"2 59527  43.0036 210.4257 0001226 265.9463  94.1248 15.27595286109090","category":"Starlink"}]}